STARLINK-31534          
1 59398U 24064A   24246.92519792  .00007260  00000+0  18105-3 0  9994
2 59398  43.0013 316.4179 0000971 238.2573 121.8189 15.40674735 24418
STARLINK-31544          
1 59399U 24064B   24246.90951739  .00007160  00000+0  17852-3 0  9991
2 59399  43.0053 316.2943 0002078 268.6736  91.3883 15.40699582 24473
STARLINK-31545          
1 59400U 24064C   24246.88486824 -.00001602  00000+0 -31102-4 0  9991
2 59400  43.0034 316.1128 0001278 282.6625  77.4088 15.40698043 24476
STARLINK-31507          
1 59401U 24064D   24246.48694509  .00002139  00000+0  58503-4 0  9997
2 59401  43.0007 318.2750 0001455 276.4456  83.6235 15.40667735 24355
STARLINK-31543          
1 59402U 24064E   24246.90056391  .00003381  00000+0  88245-4 0  9992
2 59402  43.0069 316.2272 0001283 257.4634 102.6079 15.40673613 24470
STARLINK-31366          
1 59403U 24064F   24246.88711476  .00003263  00000+0  85367-4 0  9993
2 59403  43.0063 316.1227 0001635 273.0286  87.0383 15.40688967 24474
STARLINK-31374          
1 59404U 24064G   24246.90213328  .00033128  00000+0  79205-3 0  9996
2 59404  43.0022 313.6045 0001230 268.0300  92.0416 15.40882926 24252
STARLINK-31400          
1 59405U 24064H   24246.91847612 -.00002773  00000+0 -59183-4 0  9995
2 59405  43.0014 316.3641 0000974 254.4462 105.6287 15.40680721 24478
STARLINK-31391          
1 59406U 24064J   24246.91399689  .00008579  00000+0  21251-3 0  9994
2 59406  43.0057 316.3284 0001428 268.6201  91.4492 15.40686628 24474
STARLINK-31387          
1 59407U 24064K   24246.90502839  .00003429  00000+0  89342-4 0  9992
2 59407  43.0077 316.2629 0001560 281.8309  78.2372 15.40689258 24474
STARLINK-31367          
1 59408U 24064L   24246.60671450  .00058907  00000+0  13741-2 0  9995
2 59408  42.9979 316.5563 0000840 108.6451 251.4497 15.41403275 24442
STARLINK-31396          
1 59409U 24064M   24246.47574776  .00000777  00000+0  25911-4 0  9990
2 59409  43.0070 318.1917 0002724 264.3224  95.7322 15.40652641 24357
STARLINK-31412          
1 59410U 24064N   24246.49364767  .00004254  00000+0  10909-3 0  9995
2 59410  43.0042 318.3293 0001465 283.6581  76.4113 15.40685758 24414
STARLINK-31483          
1 59411U 24064P   24246.89831780  .00005038  00000+0  12786-3 0  9990
2 59411  43.0064 316.2101 0001680 271.2566  88.8098 15.40683511 24479
STARLINK-31568          
1 59412U 24064Q   24246.89605825  .00005441  00000+0  13741-3 0  9990
2 59412  43.0047 316.1895 0002143 265.5434  94.5178 15.40703627 24479
STARLINK-31615          
1 59413U 24064R   24246.91667824  .00084088  00000+0  19134-2 0  9996
2 59413  43.0007 315.8364 0000365 246.2250 323.7169 15.42001995  5960
STARLINK-31457          
1 59414U 24064S   24246.88907956  .00006750  00000+0  16882-3 0  9994
2 59414  43.0063 314.3824 0001909 274.1871  85.8767 15.40678619 24492
STARLINK-31398          
1 59415U 24064T   24246.48918616  .00009648  00000+0  23813-3 0  9997
2 59415  43.0013 318.2899 0002330 275.8378  84.2213 15.40675111 24417
STARLINK-31399          
1 59416U 24064U   24246.54953407  .00008320  00000+0  20640-3 0  9993
2 59416  43.0026 317.8848 0001166 275.3933  84.6790 15.40674395 24427
STARLINK-31401          
1 59417U 24064V   24246.54728795  .00004428  00000+0  11323-3 0  9997
2 59417  43.0028 317.8680 0001418 265.7319  94.3376 15.40691802 24177
STARLINK-31414          
1 59418U 24064W   24246.90727517  .00011382  00000+0  27937-3 0  9994
2 59418  43.0042 316.2805 0002535 265.9571  94.0996 15.40696088 24478
STARLINK-31415          
1 59419U 24064X   24246.20311188  .00002975  00000+0  78511-4 0  9994
2 59419  43.0072 320.4544 0001974 293.3226  66.7423 15.40677112 24363
STARLINK-31466          
1 59420U 24064Y   24246.91174561  .00003050  00000+0  80253-4 0  9997
2 59420  43.0048 316.3069 0001737 265.4960  94.5698 15.40696622 24478
STARLINK-11087 [DTC]    
1 59421U 24065A   24246.88804053  .00002089  00000+0  20671-4 0  9990
2 59421  53.1592 306.7504 0001597 108.0684 252.0509 15.71446721 24582
STARLINK-11090 [DTC]    
1 59422U 24065B   24246.88436919  .00003298  00000+0  29924-4 0  9996
2 59422  53.1583 306.7313 0001563  84.8073 275.3124 15.71464093 24591
STARLINK-11093 [DTC]    
1 59423U 24065C   24246.88263262  .00002402  00000+0  23072-4 0  9990
2 59423  53.1568 306.7144 0001641  73.2908 286.8291 15.71449236 24586
STARLINK-11083 [DTC]    
1 59424U 24065D   24246.88012612  .00002356  00000+0  22710-4 0  9998
2 59424  53.1568 306.6993 0001754  97.7472 262.3746 15.71456652 24539
STARLINK-11085 [DTC]    
1 59425U 24065E   24246.87748368  .00003820  00000+0  33917-4 0  9990
2 59425  53.1566 306.6820 0001283  79.9744 280.1419 15.71465999 24548
STARLINK-11089 [DTC]    
1 59426U 24065F   24246.90406557  .00000835  00000+0  11046-4 0  9998
2 59426  53.1572 306.1413 0001355  59.6687 300.4466 15.71455202 24601
STARLINK-31757          
1 59427U 24065G   24246.67947785  .00006300  00000+0  16760-3 0  9996
2 59427  53.1611 337.9943 0001524  98.8433 261.2744 15.39573269 24159
STARLINK-31752          
1 59428U 24065H   24246.91667824  .00371312  00000+0  15420-2 0  9996
2 59428  53.1507 319.1002 0006493  16.4350  89.5903 15.84226945  5812
STARLINK-31773          
1 59429U 24065J   24246.60081230 -.00006048  00000+0 -14144-3 0  9990
2 59429  53.1601 339.6269 0001166  98.2919 261.8218 15.39597571 24126
STARLINK-31772          
1 59430U 24065K   24246.50340011 -.00003786  00000+0 -84752-4 0  9995
2 59430  53.1603 339.7269 0001894  83.2148 276.9072 15.39599020 24112
STARLINK-31613          
1 59431U 24065L   24246.65641770  .00005196  00000+0  13972-3 0  9998
2 59431  53.1608 339.2625 0000594 113.9321 246.1746 15.39633914 24139
STARLINK-31780          
1 59432U 24065M   24246.55902956  .00008288  00000+0  21711-3 0  9999
2 59432  53.1606 339.3651 0000779 126.1786 233.9291 15.39596755 24112
STARLINK-31740          
1 59433U 24065N   24246.67503210  .00002069  00000+0  61755-4 0  9997
2 59433  53.1613 339.3795 0001444  68.1856 291.9303 15.39591975 24132
STARLINK-31580          
1 59434U 24065P   24246.67038058  .00013254  00000+0  34103-3 0  9995
2 59434  53.1608 339.3486 0002510 112.3351 247.7920 15.39594796 24139
STARLINK-31696          
1 59435U 24065Q   24246.64717697  .00004562  00000+0  12424-3 0  9990
2 59435  53.1602 339.2024 0001346 116.2050 243.9094 15.39547760 24135
STARLINK-31700          
1 59436U 24065R   24246.63753037  .00011009  00000+0  28472-3 0  9992
2 59436  53.1601 339.1424 0001233 105.3460 254.7681 15.39628249 24131
STARLINK-31706          
1 59437U 24065S   24246.66108518  .00004095  00000+0  11241-3 0  9997
2 59437  53.1606 339.2945 0001579  71.7237 288.3940 15.39591271 24132
STARLINK-31711          
1 59438U 24065T   24246.63787561  .00007387  00000+0  19460-3 0  9994
2 59438  53.1581 339.1453 0001864  99.6281 260.4934 15.39599424 24135
STARLINK-31708          
1 59439U 24065U   24246.69315489  .00010458  00000+0  27114-3 0  9995
2 59439  53.1609 338.7780 0000782 161.5199 198.5835 15.39612351 24147
STARLINK-31682          
1 59440U 24065V   24246.91667824  .00212150  00000+0  15268-2 0  9994
2 59440  53.1554 306.8735 0001472  24.9188  14.6182 15.72437239  6084
STARLINK-31693          
1 59441U 24065W   24246.55437333  .00016106  00000+0  41169-3 0  9998
2 59441  53.1584 339.3343 0001643 102.5473 257.5715 15.39626408 24120
STARLINK-31617          
1 59455U 24068A   24246.86893038  .00003680  00000+0  95308-4 0  9996
2 59455  42.9973 294.9349 0000317 134.5912 225.4970 15.40694725 23760
STARLINK-31622          
1 59456U 24068B   24246.85547422 -.00001550  00000+0 -29835-4 0  9997
2 59456  43.0035 294.8283 0001800 243.3731 116.6941 15.40703656 23767
STARLINK-31319          
1 59457U 24068C   24246.43080894  .00001926  00000+0  53378-4 0  9991
2 59457  42.9995 297.6689 0001168 286.4319  73.6410 15.40682088 23699
STARLINK-31625          
1 59458U 24068D   24246.84651778  .00000511  00000+0  19500-4 0  9990
2 59458  43.0025 294.7653 0001377 272.4963  87.5736 15.40703074 23769
STARLINK-31631          
1 59459U 24068E   24246.83097940  .00002605  00000+0  69596-4 0  9991
2 59459  43.0040 295.5145 0000290 338.1844  21.9000 15.40694080 23754
STARLINK-31620          
1 59460U 24068F   24246.42408697  .00003085  00000+0  81118-4 0  9990
2 59460  43.0010 297.6164 0001043 269.2959  90.7778 15.40689274 23693
STARLINK-31511          
1 59462U 24068H   24246.86219527 -.00000013  00000+0  69593-5 0  9995
2 59462  43.0046 294.8825 0001572 268.7672  91.3005 15.40704059 23767
STARLINK-31364          
1 59463U 24068J   24246.50010778 -.00002569  00000+0 -54213-4 0  9995
2 59463  43.0029 297.3307 0001257 297.3254  62.7475 15.40719470 23706
STARLINK-31597          
1 59464U 24068K   24246.84203943  .00005154  00000+0  13062-3 0  9998
2 59464  43.0054 294.7280 0001252 287.5785  72.4934 15.40685795 23712
STARLINK-31621          
1 59465U 24068L   24246.84875669  .00001632  00000+0  46305-4 0  9993
2 59465  43.0025 294.7888 0001264 264.8508  95.2205 15.40705774 23768
STARLINK-31462          
1 59466U 24068M   24246.83756459  .00006303  00000+0  15805-3 0  9998
2 59466  43.0044 294.6801 0000928 269.6678  90.4072 15.40693447 23763
STARLINK-31592          
1 59467U 24068N   24246.85997120  .00009335  00000+0  23068-3 0  9991
2 59467  43.0000 294.8601 0000770 227.5482 132.5309 15.40670372 23760
STARLINK-31267          
1 59468U 24068P   24246.42184845  .00000394  00000+0  16687-4 0  9993
2 59468  43.0026 297.5964 0000386 255.1491 104.9323 15.40684942 23690
STARLINK-31381          
1 59469U 24068Q   24246.41960400  .00005309  00000+0  13426-3 0  9990
2 59469  43.0007 297.5860 0000521 193.4719 166.6124 15.40699961 23694
STARLINK-31546          
1 59470U 24068R   24246.49788282  .00000130  00000+0  10377-4 0  9996
2 59470  42.9995 297.3093 0000506 262.5780  97.5019 15.40678632 23704
